{
"type": "FeatureCollection",
"name": "lines",
"crs": { "type": "name", "properties": { "name": "urn:ogc:def:crs:EPSG::3857" } },
"features": [
{ "type": "Feature", "properties": { "id": null }, "geometry": { "type": "MultiLineString", "coordinates": [ [ [ 2899260.290918497368693, 9354852.719553520902991 ], [ 2899180.861628748010844, 9354448.126608859747648 ], [ 2899096.468008389230818, 9354281.821533447131515 ], [ 2899578.00807749433443, 9354160.195433519780636 ], [ 2899999.976179287303239, 9354314.089682407677174 ], [ 2900047.137320075649768, 9354795.629751512780786 ], [ 2899856.010591616854072, 9355023.988959541544318 ] ] ] } }
]
}
