{
"type": "FeatureCollection",
"name": "polygons",
"crs": { "type": "name", "properties": { "name": "urn:ogc:def:crs:EPSG::3857" } },
"features": [
{ "type": "Feature", "properties": { "id": null }, "geometry": { "type": "MultiPolygon", "coordinates": [ [ [ [ 2899302.95309552224353, 9354971.977657072246075 ], [ 2899733.432541182264686, 9354904.487235506996512 ], [ 2899764.441653793677688, 9354610.812698425725102 ], [ 2899525.489080143161118, 9354430.230219101533294 ], [ 2899231.814543061424047, 9354495.896575219929218 ], [ 2899155.203794257249683, 9354727.552887080237269 ], [ 2899302.95309552224353, 9354971.977657072246075 ] ] ] ] } }
]
}
